start=new Date('2022-11-20T00:00:00.000Z').valueOf();
sats=[{"ELEMENT_SET_NO":"999","EPOCH":"2022-11-19T20:17:53.548224","APOAPSIS":"548.397","BSTAR":"0.00007401400000","NORAD_CAT_ID":"48029","TLE_LINE2":"2 48029  53.0549 344.8556 0001724  56.3090 303.8063 15.06403375 92887","MEAN_ANOMALY":"303.8063","COUNTRY_CODE":"US","REV_AT_EPOCH":"9288","DECAY_DATE":null,"OBJECT_ID":"2021-024BE","GP_ID":"218235124","MEAN_ELEMENT_THEORY":"SGP4","RCS_SIZE":"LARGE","MEAN_MOTION_DDOT":"0.0000000000000","ARG_OF_PERICENTER":"56.3090","MEAN_MOTION":"15.06403375","CLASSIFICATION_TYPE":"U","RA_OF_ASC_NODE":"344.8556","SEMIMAJOR_AXIS":"6925.338","EPHEMERIS_TYPE":"0","PERIOD":"95.592","PERIAPSIS":"546.009","OBJECT_NAME":"STARLINK-2299","REF_FRAME":"TEME","ECCENTRICITY":"0.00017240","INCLINATION":"53.0549","TIME_SYSTEM":"UTC","OBJECT_TYPE":"PAYLOAD","CENTER_NAME":"EARTH","MEAN_MOTION_DOT":"0.00000821","SITE":"AFETR","TLE_LINE1":"1 48029U 21024BE  22323.84575866  .00000821  00000-0  74014-4 0  9994","FILE":"3663561","LAUNCH_DATE":"2021-03-24"},{"MEAN_ANOMALY":"305.1103","COUNTRY_CODE":"US","DECAY_DATE":null,"OBJECT_ID":"2021-024BF","REV_AT_EPOCH":"9274","RCS_SIZE":"LARGE","GP_ID":"218234875","MEAN_ELEMENT_THEORY":"SGP4","ELEMENT_SET_NO":"999","NORAD_CAT_ID":"48030","BSTAR":"0.00010261000000","EPOCH":"2022-11-19T19:21:29.683584","APOAPSIS":"548.606","TLE_LINE2":"2 48030  53.0543 350.0472 0002016  55.0075 305.1103 15.06401346 92744","MEAN_MOTION":"15.06401346","ARG_OF_PERICENTER":"55.0075","CLASSIFICATION_TYPE":"U","RA_OF_ASC_NODE":"350.0472","MEAN_MOTION_DDOT":"0.0000000000000","ECCENTRICITY":"0.00020160","REF_FRAME":"TEME","INCLINATION":"53.0543","TIME_SYSTEM":"UTC","OBJECT_TYPE":"PAYLOAD","EPHEMERIS_TYPE":"0","SEMIMAJOR_AXIS":"6925.344","PERIOD":"95.592","PERIAPSIS":"545.813","OBJECT_NAME":"STARLINK-2268","TLE_LINE1":"1 48030U 21024BF  22323.80659356  .00001247  00000-0  10261-3 0  9995","FILE":"3663561","LAUNCH_DATE":"2021-03-24","CENTER_NAME":"EARTH","MEAN_MOTION_DOT":"0.00001247","SITE":"AFETR"},{"COUNTRY_CODE":"US","MEAN_ANOMALY":"304.5888","GP_ID":"218174857","MEAN_ELEMENT_THEORY":"SGP4","RCS_SIZE":"MEDIUM","REV_AT_EPOCH":"9379","OBJECT_ID":"2021-024BG","DECAY_DATE":null,"ELEMENT_SET_NO":"999","TLE_LINE2":"2 48031  53.0537 237.8514 0001996  55.5289 304.5888 15.06414347 93799","APOAPSIS":"548.552","EPOCH":"2022-11-19T04:21:11.665728","NORAD_CAT_ID":"48031","BSTAR":"0.00079123000000","ARG_OF_PERICENTER":"55.5289","MEAN_MOTION":"15.06414347","RA_OF_ASC_NODE":"237.8514","CLASSIFICATION_TYPE":"U","MEAN_MOTION_DDOT":"0.0000000000000","INCLINATION":"53.0537","REF_FRAME":"TEME","ECCENTRICITY":"0.00019960","OBJECT_TYPE":"PAYLOAD","TIME_SYSTEM":"UTC","PERIOD":"95.591","EPHEMERIS_TYPE":"0","SEMIMAJOR_AXIS":"6925.305","OBJECT_NAME":"STARLINK-2267","PERIAPSIS":"545.787","FILE":"3662960","TLE_LINE1":"1 48031U 21024BG  22323.18138502  .00011528  00000-0  79123-3 0  9997","LAUNCH_DATE":"2021-03-24","CENTER_NAME":"EARTH","MEAN_MOTION_DOT":"0.00011528","SITE":"AFETR"},{"MEAN_MOTION_DDOT":"0.0000000000000","RA_OF_ASC_NODE":"345.2230","CLASSIFICATION_TYPE":"U","ARG_OF_PERICENTER":"66.2864","MEAN_MOTION":"15.06396423","TLE_LINE2":"2 48033  53.0563 345.2230 0001504  66.2864 293.8282 15.06396423 92872","EPOCH":"2022-11-19T18:26:26.135520","APOAPSIS":"548.266","NORAD_CAT_ID":"48033","BSTAR":"0.00007201000000","ELEMENT_SET_NO":"999","MEAN_ELEMENT_THEORY":"SGP4","GP_ID":"218236373","RCS_SIZE":"LARGE","REV_AT_EPOCH":"9287","DECAY_DATE":null,"OBJECT_ID":"2021-024BJ","COUNTRY_CODE":"US","MEAN_ANOMALY":"293.8282","SITE":"AFETR","CENTER_NAME":"EARTH","MEAN_MOTION_DOT":"0.00000791","LAUNCH_DATE":"2021-03-24","FILE":"3663561","TLE_LINE1":"1 48033U 21024BJ  22323.76835805  .00000791  00000-0  72010-4 0  9992","OBJECT_NAME":"STARLINK-2286","PERIAPSIS":"546.183","PERIOD":"95.592","SEMIMAJOR_AXIS":"6925.360","EPHEMERIS_TYPE":"0","OBJECT_TYPE":"PAYLOAD","TIME_SYSTEM":"UTC","INCLINATION":"53.0563","REF_FRAME":"TEME","ECCENTRICITY":"0.00015040"},{"RA_OF_ASC_NODE":"345.1386","CLASSIFICATION_TYPE":"U","ARG_OF_PERICENTER":"59.3330","MEAN_MOTION":"15.06403744","MEAN_MOTION_DDOT":"0.0000000000000","GP_ID":"218234625","MEAN_ELEMENT_THEORY":"SGP4","RCS_SIZE":"LARGE","REV_AT_EPOCH":"9287","DECAY_DATE":null,"OBJECT_ID":"2021-024BK","COUNTRY_CODE":"US","MEAN_ANOMALY":"300.7819","TLE_LINE2":"2 48034  53.0557 345.1386 0001620  59.3330 300.7819 15.06403744 92876","EPOCH":"2022-11-19T18:52:58.336320","APOAPSIS":"548.324","BSTAR":"0.00021992000000","NORAD_CAT_ID":"48034","ELEMENT_SET_NO":"999","LAUNCH_DATE":"2021-03-24","FILE":"3663561","TLE_LINE1":"1 48034U 21024BK  22323.78678630  .00002996  00000-0  21992-3 0  9997","SITE":"AFETR","CENTER_NAME":"EARTH","MEAN_MOTION_DOT":"0.00002996","OBJECT_TYPE":"PAYLOAD","TIME_SYSTEM":"UTC","INCLINATION":"53.0557","REF_FRAME":"TEME","ECCENTRICITY":"0.00016200","OBJECT_NAME":"STARLINK-2288","PERIAPSIS":"546.080","PERIOD":"95.592","EPHEMERIS_TYPE":"0","SEMIMAJOR_AXIS":"6925.337"},{"MEAN_MOTION_DDOT":"0.0000000000000","MEAN_MOTION":"15.06397860","ARG_OF_PERICENTER":"53.4698","RA_OF_ASC_NODE":"347.1909","CLASSIFICATION_TYPE":"U","ELEMENT_SET_NO":"999","TLE_LINE2":"2 48036  53.0553 347.1909 0001660  53.4698 306.6444 15.06397860 92806","NORAD_CAT_ID":"48036","BSTAR":"0.00007580000000","EPOCH":"2022-11-19T07:54:48.685824","APOAPSIS":"548.370","COUNTRY_CODE":"US","MEAN_ANOMALY":"306.6444","RCS_SIZE":"LARGE","GP_ID":"218204355","MEAN_ELEMENT_THEORY":"SGP4","DECAY_DATE":null,"OBJECT_ID":"2021-024BM","REV_AT_EPOCH":"9280","MEAN_MOTION_DOT":"0.00000848","CENTER_NAME":"EARTH","SITE":"AFETR","FILE":"3663316","TLE_LINE1":"1 48036U 21024BM  22323.32973016  .00000848  00000-0  75800-4 0  9997","LAUNCH_DATE":"2021-03-24","PERIOD":"95.592","EPHEMERIS_TYPE":"0","SEMIMAJOR_AXIS":"6925.355","OBJECT_NAME":"STARLINK-2295","PERIAPSIS":"546.071","INCLINATION":"53.0553","ECCENTRICITY":"0.00016600","REF_FRAME":"TEME","OBJECT_TYPE":"PAYLOAD","TIME_SYSTEM":"UTC"},{"LAUNCH_DATE":"2021-04-07","TLE_LINE1":"1 48092U 21027A   22323.79926629 -.00001392  00000-0 -74598-4 0  9991","FILE":"3663561","SITE":"AFETR","MEAN_MOTION_DOT":"-0.00001392","CENTER_NAME":"EARTH","TIME_SYSTEM":"UTC","OBJECT_TYPE":"PAYLOAD","ECCENTRICITY":"0.00015320","REF_FRAME":"TEME","INCLINATION":"53.0550","PERIAPSIS":"546.161","OBJECT_NAME":"STARLINK-2048","EPHEMERIS_TYPE":"0","SEMIMAJOR_AXIS":"6925.357","PERIOD":"95.592","CLASSIFICATION_TYPE":"U","RA_OF_ASC_NODE":"110.3544","MEAN_MOTION":"15.06397289","ARG_OF_PERICENTER":"89.6862","MEAN_MOTION_DDOT":"0.0000000000000","OBJECT_ID":"2021-027A","DECAY_DATE":null,"REV_AT_EPOCH":"9170","RCS_SIZE":"LARGE","GP_ID":"218235880","MEAN_ELEMENT_THEORY":"SGP4","MEAN_ANOMALY":"270.4303","COUNTRY_CODE":"US","NORAD_CAT_ID":"48092","BSTAR":"-0.00007459800000","APOAPSIS":"548.283","EPOCH":"2022-11-19T19:10:56.607456","TLE_LINE2":"2 48092  53.0550 110.3544 0001532  89.6862 270.4303 15.06397289 91707","ELEMENT_SET_NO":"999"},{"ELEMENT_SET_NO":"999","TLE_LINE2":"2 48093  53.0547 174.8556 0001735  64.6518 295.4651 15.06402746 90817","APOAPSIS":"548.407","EPOCH":"2022-11-19T21:28:15.379680","BSTAR":"0.00006807900000","NORAD_CAT_ID":"48093","COUNTRY_CODE":"US","MEAN_ANOMALY":"295.4651","MEAN_ELEMENT_THEORY":"SGP4","GP_ID":"218235131","RCS_SIZE":"LARGE","REV_AT_EPOCH":"9081","OBJECT_ID":"2021-027B","DECAY_DATE":null,"MEAN_MOTION_DDOT":"0.0000000000000","ARG_OF_PERICENTER":"64.6518","MEAN_MOTION":"15.06402746","RA_OF_ASC_NODE":"174.8556","CLASSIFICATION_TYPE":"U","PERIOD":"95.592","SEMIMAJOR_AXIS":"6925.340","EPHEMERIS_TYPE":"0","OBJECT_NAME":"STARLINK-2404","PERIAPSIS":"546.004","INCLINATION":"53.0547","REF_FRAME":"TEME","ECCENTRICITY":"0.00017350","OBJECT_TYPE":"PAYLOAD","TIME_SYSTEM":"UTC","MEAN_MOTION_DOT":"0.00000733","CENTER_NAME":"EARTH","SITE":"AFETR","FILE":"3663561","TLE_LINE1":"1 48093U 21027B   22323.89462245  .00000733  00000-0  68079-4 0  9995","LAUNCH_DATE":"2021-04-07"},{"LAUNCH_DATE":"2021-04-07","FILE":"3663381","TLE_LINE1":"1 48094U 21027C   22323.64670507  .00013753  00000-0  93975-3 0  9999","SITE":"AFETR","MEAN_MOTION_DOT":"0.00013753","CENTER_NAME":"EARTH","OBJECT_TYPE":"PAYLOAD","TIME_SYSTEM":"UTC","INCLINATION":"53.0538","REF_FRAME":"TEME","ECCENTRICITY":"0.00019410","OBJECT_NAME":"STARLINK-2412","PERIAPSIS":"545.795","PERIOD":"95.591","EPHEMERIS_TYPE":"0","SEMIMAJOR_AXIS":"6925.274","RA_OF_ASC_NODE":"185.7677","CLASSIFICATION_TYPE":"U","ARG_OF_PERICENTER":"83.7870","MEAN_MOTION":"15.06424376","MEAN_MOTION_DDOT":"0.0000000000000","MEAN_ELEMENT_THEORY":"SGP4","GP_ID":"218210511","RCS_SIZE":"LARGE","REV_AT_EPOCH":"9024","OBJECT_ID":"2021-027C","DECAY_DATE":null,"COUNTRY_CODE":"US","MEAN_ANOMALY":"276.3340","TLE_LINE2":"2 48094  53.0538 185.7677 0001941  83.7870 276.3340 15.06424376 90248","EPOCH":"2022-11-19T15:31:15.318048","APOAPSIS":"548.483","BSTAR":"0.00093975000000","NORAD_CAT_ID":"48094","ELEMENT_SET_NO":"999"},{"ELEMENT_SET_NO":"999","EPOCH":"2022-11-19T15:41:52.926720","APOAPSIS":"548.511","BSTAR":"0.00003268400000","NORAD_CAT_ID":"48095","TLE_LINE2":"2 48095  53.0544 185.7181 0001889  49.9235 310.1919 15.06403438 90241","MEAN_ANOMALY":"310.1919","COUNTRY_CODE":"US","REV_AT_EPOCH":"9024","DECAY_DATE":null,"OBJECT_ID":"2021-027D","GP_ID":"218210497","MEAN_ELEMENT_THEORY":"SGP4","RCS_SIZE":"MEDIUM","MEAN_MOTION_DDOT":"0.0000000000000","ARG_OF_PERICENTER":"49.9235","MEAN_MOTION":"15.06403438","CLASSIFICATION_TYPE":"U","RA_OF_ASC_NODE":"185.7181","EPHEMERIS_TYPE":"0","SEMIMAJOR_AXIS":"6925.338","PERIOD":"95.592","PERIAPSIS":"545.895","OBJECT_NAME":"STARLINK-2414","REF_FRAME":"TEME","ECCENTRICITY":"0.00018890","INCLINATION":"53.0544","TIME_SYSTEM":"UTC","OBJECT_TYPE":"PAYLOAD","MEAN_MOTION_DOT":"0.00000205","CENTER_NAME":"EARTH","SITE":"AFETR","TLE_LINE1":"1 48095U 21027D   22323.65408480  .00000205  00000-0  32684-4 0  9999","FILE":"3663381","LAUNCH_DATE":"2021-04-07"}];
